start=new Date('2021-11-18T00:00:00.000Z').valueOf();
sats=[{"CENTER_NAME":"EARTH","MEAN_ANOMALY":"50.8727","EPOCH":"2021-11-17T22:00:01.999584","MEAN_MOTION_DOT":"0.00057808","REV_AT_EPOCH":"368","MEAN_ELEMENT_THEORY":"SGP4","ECCENTRICITY":"0.00035280","TLE_LINE1":"1 49169U 21082AR  21321.91668981  .00057808  00000-0  48308-3 0  9993","ELEMENT_SET_NO":"999","MEAN_MOTION":"15.69729321","ARG_OF_PERICENTER":"284.7030","REF_FRAME":"TEME","OBJECT_ID":"2021-082AR","MEAN_MOTION_DDOT":"0.0000000000000","PERIAPSIS":"357.296","EPHEMERIS_TYPE":"0","SITE":"AFWTR","COUNTRY_CODE":"US","SEMIMAJOR_AXIS":"6737.808","LAUNCH_DATE":"2021-09-14","PERIOD":"91.736","APOAPSIS":"362.051","BSTAR":"0.00048308000000","INCLINATION":"69.9976","GP_ID":"189977896","CLASSIFICATION_TYPE":"U","OBJECT_TYPE":"PAYLOAD","TIME_SYSTEM":"UTC","NORAD_CAT_ID":"49169","DECAY_DATE":null,"FILE":"3217982","RCS_SIZE":"LARGE","TLE_LINE2":"2 49169  69.9976 304.6849 0003528 284.7030  50.8727 15.69729321  3684","RA_OF_ASC_NODE":"304.6849","OBJECT_NAME":"STARLINK-3046"},{"BSTAR":"-0.00956120000000","APOAPSIS":"396.226","INCLINATION":"70.0000","GP_ID":"189978484","CLASSIFICATION_TYPE":"U","OBJECT_TYPE":"PAYLOAD","NORAD_CAT_ID":"49170","TIME_SYSTEM":"UTC","DECAY_DATE":null,"FILE":"3217982","TLE_LINE2":"2 49170  70.0000 304.9114 0003456 281.3258 242.9265 15.57848860  3688","RCS_SIZE":"LARGE","RA_OF_ASC_NODE":"304.9114","OBJECT_NAME":"STARLINK-3074","MEAN_ANOMALY":"242.9265","CENTER_NAME":"EARTH","EPOCH":"2021-11-17T22:00:01.999584","REV_AT_EPOCH":"368","MEAN_MOTION_DOT":"-0.00659733","MEAN_ELEMENT_THEORY":"SGP4","ELEMENT_SET_NO":"999","TLE_LINE1":"1 49170U 21082AS  21321.91668981 -.00659733  00000-0 -95612-2 0  9991","ECCENTRICITY":"0.00034560","MEAN_MOTION":"15.57848860","ARG_OF_PERICENTER":"281.3258","REF_FRAME":"TEME","OBJECT_ID":"2021-082AS","PERIAPSIS":"391.546","MEAN_MOTION_DDOT":"0.0000000000000","EPHEMERIS_TYPE":"0","LAUNCH_DATE":"2021-09-14","PERIOD":"92.435","SEMIMAJOR_AXIS":"6772.021","COUNTRY_CODE":"US","SITE":"AFWTR"},{"MEAN_MOTION":"15.57262753","ARG_OF_PERICENTER":"283.7267","MEAN_ELEMENT_THEORY":"SGP4","TLE_LINE1":"1 49171U 21082AT  21321.91668981 -.00659148  00000-0 -97644-2 0  9999","ELEMENT_SET_NO":"999","ECCENTRICITY":"0.00035420","EPOCH":"2021-11-17T22:00:01.999584","MEAN_MOTION_DOT":"-0.00659148","REV_AT_EPOCH":"368","MEAN_ANOMALY":"213.7031","CENTER_NAME":"EARTH","LAUNCH_DATE":"2021-09-14","SEMIMAJOR_AXIS":"6773.720","PERIOD":"92.470","COUNTRY_CODE":"US","SITE":"AFWTR","PERIAPSIS":"393.186","MEAN_MOTION_DDOT":"0.0000000000000","EPHEMERIS_TYPE":"0","REF_FRAME":"TEME","OBJECT_ID":"2021-082AT","OBJECT_TYPE":"PAYLOAD","INCLINATION":"69.9999","GP_ID":"189978359","CLASSIFICATION_TYPE":"U","BSTAR":"-0.00976440000000","APOAPSIS":"397.984","TLE_LINE2":"2 49171  69.9999 304.9227 0003542 283.7267 213.7031 15.57262753  3688","RCS_SIZE":"LARGE","RA_OF_ASC_NODE":"304.9227","OBJECT_NAME":"STARLINK-3107","FILE":"3217982","DECAY_DATE":null,"NORAD_CAT_ID":"49171","TIME_SYSTEM":"UTC"},{"OBJECT_TYPE":"PAYLOAD","CLASSIFICATION_TYPE":"U","INCLINATION":"70.0002","GP_ID":"189978765","APOAPSIS":"362.047","BSTAR":"-0.00000354840000","OBJECT_NAME":"STARLINK-3091","RA_OF_ASC_NODE":"304.6685","RCS_SIZE":"LARGE","TLE_LINE2":"2 49172  70.0002 304.6685 0003599 289.6348  58.4648 15.69747358  3689","FILE":"3217982","DECAY_DATE":null,"TIME_SYSTEM":"UTC","NORAD_CAT_ID":"49172","ARG_OF_PERICENTER":"289.6348","MEAN_MOTION":"15.69747358","ECCENTRICITY":"0.00035990","TLE_LINE1":"1 49172U 21082AU  21321.91668981 -.00000636  00000-0 -35484-5 0  9999","ELEMENT_SET_NO":"999","MEAN_ELEMENT_THEORY":"SGP4","MEAN_MOTION_DOT":"-0.00000636","REV_AT_EPOCH":"368","EPOCH":"2021-11-17T22:00:01.999584","CENTER_NAME":"EARTH","MEAN_ANOMALY":"58.4648","COUNTRY_CODE":"US","SITE":"AFWTR","SEMIMAJOR_AXIS":"6737.757","LAUNCH_DATE":"2021-09-14","PERIOD":"91.735","EPHEMERIS_TYPE":"0","MEAN_MOTION_DDOT":"0.0000000000000","PERIAPSIS":"357.197","OBJECT_ID":"2021-082AU","REF_FRAME":"TEME"},{"MEAN_ELEMENT_THEORY":"SGP4","TLE_LINE1":"1 49173U 21082AV  21321.91668981  .00061445  00000-0  51335-3 0  9994","ELEMENT_SET_NO":"999","ECCENTRICITY":"0.00037330","MEAN_MOTION":"15.69718503","ARG_OF_PERICENTER":"286.8093","MEAN_ANOMALY":"327.9601","CENTER_NAME":"EARTH","EPOCH":"2021-11-17T22:00:01.999584","REV_AT_EPOCH":"367","MEAN_MOTION_DOT":"0.00061445","LAUNCH_DATE":"2021-09-14","PERIOD":"91.736","SEMIMAJOR_AXIS":"6737.839","SITE":"AFWTR","COUNTRY_CODE":"US","REF_FRAME":"TEME","OBJECT_ID":"2021-082AV","PERIAPSIS":"357.189","MEAN_MOTION_DDOT":"0.0000000000000","EPHEMERIS_TYPE":"0","OBJECT_TYPE":"PAYLOAD","BSTAR":"0.00051335000000","APOAPSIS":"362.220","GP_ID":"189978238","INCLINATION":"69.9975","CLASSIFICATION_TYPE":"U","FILE":"3217982","TLE_LINE2":"2 49173  69.9975 304.3599 0003733 286.8093 327.9601 15.69718503  3675","RCS_SIZE":"LARGE","OBJECT_NAME":"STARLINK-3045","RA_OF_ASC_NODE":"304.3599","NORAD_CAT_ID":"49173","TIME_SYSTEM":"UTC","DECAY_DATE":null},{"REF_FRAME":"TEME","OBJECT_ID":"2021-082AW","MEAN_MOTION_DDOT":"0.0000000000000","PERIAPSIS":"357.286","EPHEMERIS_TYPE":"0","COUNTRY_CODE":"US","SITE":"AFWTR","PERIOD":"91.737","LAUNCH_DATE":"2021-09-14","SEMIMAJOR_AXIS":"6737.871","CENTER_NAME":"EARTH","MEAN_ANOMALY":"59.4216","EPOCH":"2021-11-17T22:00:01.999584","REV_AT_EPOCH":"368","MEAN_MOTION_DOT":"0.00059224","MEAN_ELEMENT_THEORY":"SGP4","ECCENTRICITY":"0.00036360","ELEMENT_SET_NO":"999","TLE_LINE1":"1 49174U 21082AW  21321.91668981  .00059224  00000-0  49522-3 0  9992","MEAN_MOTION":"15.69707402","ARG_OF_PERICENTER":"284.6614","TIME_SYSTEM":"UTC","NORAD_CAT_ID":"49174","DECAY_DATE":null,"FILE":"3217982","RCS_SIZE":"LARGE","TLE_LINE2":"2 49174  69.9985 304.6779 0003636 284.6614  59.4216 15.69707402  3683","RA_OF_ASC_NODE":"304.6779","OBJECT_NAME":"STARLINK-3047","APOAPSIS":"362.186","BSTAR":"0.00049522000000","GP_ID":"189978143","INCLINATION":"69.9985","CLASSIFICATION_TYPE":"U","OBJECT_TYPE":"PAYLOAD"},{"OBJECT_TYPE":"PAYLOAD","GP_ID":"189978019","INCLINATION":"69.9982","CLASSIFICATION_TYPE":"U","APOAPSIS":"362.107","BSTAR":"0.00050096000000","RCS_SIZE":"LARGE","TLE_LINE2":"2 49175  69.9982 304.6695 0003541 286.5930  63.8585 15.69712809  3680","OBJECT_NAME":"STARLINK-3087","RA_OF_ASC_NODE":"304.6695","FILE":"3217982","DECAY_DATE":null,"TIME_SYSTEM":"UTC","NORAD_CAT_ID":"49175","MEAN_MOTION":"15.69712809","ARG_OF_PERICENTER":"286.5930","MEAN_ELEMENT_THEORY":"SGP4","ECCENTRICITY":"0.00035410","ELEMENT_SET_NO":"999","TLE_LINE1":"1 49175U 21082AX  21321.91668981  .00059930  00000-0  50096-3 0  9995","EPOCH":"2021-11-17T22:00:01.999584","REV_AT_EPOCH":"368","MEAN_MOTION_DOT":"0.00059930","CENTER_NAME":"EARTH","MEAN_ANOMALY":"63.8585","COUNTRY_CODE":"US","SITE":"AFWTR","LAUNCH_DATE":"2021-09-14","PERIOD":"91.737","SEMIMAJOR_AXIS":"6737.856","MEAN_MOTION_DDOT":"0.0000000000000","PERIAPSIS":"357.335","EPHEMERIS_TYPE":"0","REF_FRAME":"TEME","OBJECT_ID":"2021-082AX"},{"INCLINATION":"69.9973","GP_ID":"189955013","CLASSIFICATION_TYPE":"U","BSTAR":"0.00008008700000","APOAPSIS":"362.049","OBJECT_TYPE":"PAYLOAD","DECAY_DATE":null,"NORAD_CAT_ID":"49176","TIME_SYSTEM":"UTC","TLE_LINE2":"2 49176  69.9973 304.4217 0003604 286.3713 183.2880 15.69747892 10285","RCS_SIZE":"LARGE","OBJECT_NAME":"STARLINK-3069","RA_OF_ASC_NODE":"304.4217","FILE":"3217974","EPOCH":"2021-11-18T00:00:00.999648","REV_AT_EPOCH":"1028","MEAN_MOTION_DOT":"0.00009359","MEAN_ANOMALY":"183.2880","CENTER_NAME":"EARTH","MEAN_MOTION":"15.69747892","ARG_OF_PERICENTER":"286.3713","MEAN_ELEMENT_THEORY":"SGP4","TLE_LINE1":"1 49176U 21082AY  21322.00001157  .00009359  00000-0  80087-4 0  9997","ELEMENT_SET_NO":"999","ECCENTRICITY":"0.00036040","PERIAPSIS":"357.192","MEAN_MOTION_DDOT":"0.0000000000000","EPHEMERIS_TYPE":"0","REF_FRAME":"TEME","OBJECT_ID":"2021-082AY","SEMIMAJOR_AXIS":"6737.755","LAUNCH_DATE":"2021-09-14","PERIOD":"91.734","COUNTRY_CODE":"US","SITE":"AFWTR"},{"OBJECT_ID":"2021-082AZ","REF_FRAME":"TEME","EPHEMERIS_TYPE":"0","PERIAPSIS":"357.282","MEAN_MOTION_DDOT":"0.0000000000000","PERIOD":"91.734","LAUNCH_DATE":"2021-09-14","SEMIMAJOR_AXIS":"6737.738","COUNTRY_CODE":"US","SITE":"AFWTR","MEAN_ANOMALY":"175.8673","CENTER_NAME":"EARTH","REV_AT_EPOCH":"1148","MEAN_MOTION_DOT":"0.00006171","EPOCH":"2021-11-18T00:00:00.999648","ELEMENT_SET_NO":"999","TLE_LINE1":"1 49177U 21082AZ  21322.00001157  .00006171  00000-0  53423-4 0  9991","ECCENTRICITY":"0.00034440","MEAN_ELEMENT_THEORY":"SGP4","ARG_OF_PERICENTER":"287.4167","MEAN_MOTION":"15.69753953","NORAD_CAT_ID":"49177","TIME_SYSTEM":"UTC","DECAY_DATE":null,"FILE":"3217974","RA_OF_ASC_NODE":"304.4278","OBJECT_NAME":"STARLINK-3103","TLE_LINE2":"2 49177  69.9967 304.4278 0003444 287.4167 175.8673 15.69753953 11488","RCS_SIZE":"LARGE","BSTAR":"0.00005342300000","APOAPSIS":"361.923","CLASSIFICATION_TYPE":"U","GP_ID":"189955007","INCLINATION":"69.9967","OBJECT_TYPE":"PAYLOAD"},{"CLASSIFICATION_TYPE":"U","INCLINATION":"69.9996","GP_ID":"189954958","BSTAR":"-0.00984750000000","APOAPSIS":"401.128","OBJECT_TYPE":"PAYLOAD","DECAY_DATE":null,"NORAD_CAT_ID":"49178","TIME_SYSTEM":"UTC","RA_OF_ASC_NODE":"304.6747","OBJECT_NAME":"STARLINK-3086","TLE_LINE2":"2 49178  69.9996 304.6747 0003533 280.5245 310.9117 15.56177551 11445","RCS_SIZE":"LARGE","FILE":"3217969","REV_AT_EPOCH":"1144","MEAN_MOTION_DOT":"-0.00639896","EPOCH":"2021-11-18T00:00:00.999648","MEAN_ANOMALY":"310.9117","CENTER_NAME":"EARTH","ARG_OF_PERICENTER":"280.5245","MEAN_MOTION":"15.56177551","TLE_LINE1":"1 49178U 21082BA  21322.00001157 -.00639896  00000-0 -98475-2 0  9994","ELEMENT_SET_NO":"999","ECCENTRICITY":"0.00035330","MEAN_ELEMENT_THEORY":"SGP4","EPHEMERIS_TYPE":"0","PERIAPSIS":"396.340","MEAN_MOTION_DDOT":"0.0000000000000","OBJECT_ID":"2021-082BA","REF_FRAME":"TEME","SEMIMAJOR_AXIS":"6776.869","LAUNCH_DATE":"2021-09-14","PERIOD":"92.534","SITE":"AFWTR","COUNTRY_CODE":"US"}];
